NORAD_CAT_ID,OBJECT_NAME,OBJECT_TYPE,EPOCH,MEAN_MOTION,ECCENTRICITY,INCLINATION,RA_OF_ASC_NODE,ARG_OF_PERICENTER,MEAN_ANOMALY,BSTAR,MEAN_MOTION_DOT,MEAN_MOTION_DDOT,TLE_LINE0,TLE_LINE1,TLE_LINE2,SEMIMAJOR_AXIS,PERIOD,APOGEE,PERIGEE,DECAYED
52567.0,STARLINK-3929,PAYLOAD,2023-09-13 02:07:33,15.08842919,0.0001353,53.2146,237.9887,93.5501,266.5645,0.00014838,2.075e-05,0.0,0 STARLINK-3929,1 52567U 22051AL  23256.08858282  .00002075  00000-0  14838-3 0  9995,2 52567  53.2146 237.9887 0001353  93.5501 266.5645 15.08842919 74481,6917.871,95.437,540.672,538.8,0.0
52567.0,STARLINK-3929,PAYLOAD,2023-09-13 08:29:05,15.08853761,0.0001426,53.2151,236.8,88.0649,272.0506,0.00034904,5.273e-05,0.0,0 STARLINK-3929,1 52567U 22051AL  23256.35353804  .00005273  00000-0  34904-3 0  9994,2 52567  53.2151 236.8000 0001426  88.0649 272.0506 15.08853761 74525,6917.838,95.437,540.69,538.717,0.0
52567.0,STARLINK-3929,PAYLOAD,2023-09-13 16:26:01,15.08841195,0.0001375,53.2151,235.3139,94.0195,266.0955,0.00011962,1.616e-05,0.0,0 STARLINK-3929,1 52567U 22051AL  23256.68474304  .00001616  00000-0  11962-3 0  9995,2 52567  53.2151 235.3139 0001375  94.0195 266.0955 15.08841195 74572,6917.877,95.437,540.693,538.791,0.0
52567.0,STARLINK-3929,PAYLOAD,2023-09-14 08:19:53,15.08838773,0.0001451,53.2153,232.3413,91.1851,268.9307,0.00017252,2.459e-05,0.0,0 STARLINK-3929,1 52567U 22051AL  23257.34714551  .00002459  00000-0  17252-3 0  9994,2 52567  53.2153 232.3413 0001451  91.1851 268.9307 15.08838773 74602,6917.884,95.438,540.753,538.745,0.0
52567.0,STARLINK-3929,PAYLOAD,2023-09-15 03:24:31,15.08843178,0.0001506,53.2158,228.7727,97.1625,262.9539,0.00023459,3.448e-05,0.0,0 STARLINK-3929,1 52567U 22051AL  23258.14202746  .00003448  00000-0  23459-3 0  9996,2 52567  53.2158 228.7727 0001506  97.1625 262.9539 15.08843178 74796,6917.871,95.437,540.778,538.694,0.0
52567.0,STARLINK-3929,PAYLOAD,2023-09-15 09:46:03,15.08849799,0.0001511,53.2157,227.5822,102.1587,257.9575,0.00039465,6e-05,0.0,0 STARLINK-3929,1 52567U 22051AL  23258.40698476  .00006000  00000-0  39465-3 0  9995,2 52567  53.2157 227.5822 0001511 102.1587 257.9575 15.08849799 74764,6917.85,95.437,540.761,538.67,0.0
52567.0,STARLINK-3929,PAYLOAD,2023-09-16 01:39:55,15.08837336,0.0001687,53.2159,224.6076,110.9576,249.1597,5.3426e-05,5.62e-06,0.0,0 STARLINK-3929,1 52567U 22051AL  23259.06938862  .00000562  00000-0  53426-4 0  9995,2 52567  53.2159 224.6076 0001687 110.9576 249.1597 15.08837336 74934,6917.889,95.438,540.921,538.586,0.0
52567.0,STARLINK-3929,PAYLOAD,2023-09-16 04:50:41,15.08843087,0.0001447,53.2163,224.0152,99.7541,260.3615,0.00021111,3.074e-05,0.0,0 STARLINK-3929,1 52567U 22051AL  23259.20186868  .00003074  00000-0  21111-3 0  9998,2 52567  53.2163 224.0152 0001447  99.7541 260.3615 15.08843087 74888,6917.871,95.437,540.737,538.735,0.0
52567.0,STARLINK-3929,PAYLOAD,2023-09-17 03:06:05,15.08842313,0.0001396,53.216,219.8524,100.5146,259.6004,0.00013685,1.891e-05,0.0,0 STARLINK-3929,1 52567U 22051AL  23260.12923006  .00001891  00000-0  13685-3 0  9996,2 52567  53.2160 219.8524 0001396 100.5146 259.6004 15.08842313 75093,6917.873,95.437,540.704,538.773,0.0
52567.0,STARLINK-3929,PAYLOAD,2023-09-17 07:52:14,15.08849993,0.0001403,53.2165,218.9598,100.6574,259.4576,0.00031596,4.745e-05,0.0,0 STARLINK-3929,1 52567U 22051AL  23260.32794774  .00004745  00000-0  31596-3 0  9998,2 52567  53.2165 218.9598 0001403 100.6574 259.4576 15.08849993 75053,6917.85,95.437,540.685,538.744,0.0
52567.0,STARLINK-3929,PAYLOAD,2023-09-18 02:56:52,15.08841317,0.0001551,53.2161,215.3906,83.3217,276.7951,0.00014065,1.951e-05,0.0,0 STARLINK-3929,1 52567U 22051AL  23261.12283237  .00001951  00000-0  14065-3 0  9992,2 52567  53.2161 215.3906 0001551  83.3217 276.7951 15.08841317 75240,6917.876,95.437,540.814,538.668,0.0
52567.0,STARLINK-3929,PAYLOAD,2023-09-18 06:07:38,15.08847284,0.0001562,53.2164,214.7975,97.098,263.019,0.00025931,3.842e-05,0.0,0 STARLINK-3929,1 52567U 22051AL  23261.25531016  .00003842  00000-0  25931-3 0  9992,2 52567  53.2164 214.7975 0001562  97.0980 263.0190 15.08847284 75190,6917.858,95.437,540.804,538.643,0.0
52567.0,STARLINK-3929,PAYLOAD,2023-09-19 04:23:02,15.08860675,0.0001505,53.2159,210.6339,93.4894,266.627,0.00043695,6.677e-05,0.0,0 STARLINK-3929,1 52567U 22051AL  23262.18266245  .00006677  00000-0  43695-3 0  9990,2 52567  53.2159 210.6339 0001505  93.4894 266.6270 15.08860675 75405,6917.817,95.436,540.723,538.641,0.0
52567.0,STARLINK-3929,PAYLOAD,2023-09-20 02:38:26,15.08846534,0.0001714,53.2165,206.47,92.0299,268.0889,0.00012068,1.633e-05,0.0,0 STARLINK-3929,1 52567U 22051AL  23263.11002640  .00001633  00000-0  12068-3 0  9998,2 52567  53.2165 206.4700 0001714  92.0299 268.0889 15.08846534 75548,6917.86,95.437,540.911,538.54,0.0
52567.0,STARLINK-3929,PAYLOAD,2023-09-20 13:46:08,15.08832387,0.0001639,53.2167,204.3898,82.8728,277.245,-0.00011575,-2.129e-05,0.0,0 STARLINK-3929,1 52567U 22051AL  23263.57371203 -.00002129  00000-0 -11575-3 0  9997,2 52567  53.2167 204.3898 0001639  82.8728 277.2450 15.08832387 75542,6917.904,95.438,540.903,538.635,0.0
52567.0,STARLINK-3929,PAYLOAD,2023-09-21 02:29:14,15.08829214,0.0001531,53.2161,202.0088,97.0646,263.0521,-0.00014919,-2.661e-05,0.0,0 STARLINK-3929,1 52567U 22051AL  23264.10363547 -.00002661  00000-0 -14919-3 0  9995,2 52567  53.2161 202.0088 0001531  97.0646 263.0521 15.08829214 75626,6917.913,95.438,540.837,538.719,0.0
52567.0,STARLINK-3929,PAYLOAD,2023-09-22 02:20:01,15.08846763,0.0001509,53.2165,197.5509,88.151,271.9655,0.00055407,8.543e-05,0.0,0 STARLINK-3929,1 52567U 22051AL  23265.09724038  .00008543  00000-0  55407-3 0  9990,2 52567  53.2165 197.5509 0001509  88.1510 271.9655 15.08846763 75840,6917.86,95.437,540.769,538.681,0.0
52567.0,STARLINK-3929,PAYLOAD,2023-09-22 05:30:47,15.08849692,0.0001499,53.2166,196.9563,89.9303,270.186,0.00061747,9.555e-05,0.0,0 STARLINK-3929,1 52567U 22051AL  23265.22971980  .00009555  00000-0  61747-3 0  9993,2 52567  53.2166 196.9563 0001499  89.9303 270.1860 15.08849692 75798,6917.851,95.437,540.753,538.679,0.0
52567.0,STARLINK-3929,PAYLOAD,2023-09-23 02:10:48,15.0885592,0.0001333,53.2159,193.0888,97.152,262.9624,0.00051716,7.956e-05,0.0,0 STARLINK-3929,1 52567U 22051AL  23266.09083562  .00007956  00000-0  51716-3 0  9997,2 52567  53.2159 193.0888 0001333  97.1520 262.9624 15.08855920 75997,6917.832,95.437,540.619,538.775,0.0
52567.0,STARLINK-3929,PAYLOAD,2023-09-23 18:04:39,15.08846641,0.0001186,53.215,190.1158,93.8163,266.2965,6.9003e-05,8.11e-06,0.0,0 STARLINK-3929,1 52567U 22051AL  23266.75323469  .00000811  00000-0  69003-4 0  9995,2 52567  53.2150 190.1158 0001186  93.8163 266.2965 15.08846641 76095,6917.86,95.437,540.546,538.905,0.0
52567.0,STARLINK-3929,PAYLOAD,2023-09-24 00:26:12,15.08843533,0.0001165,53.215,188.9255,89.716,270.3966,4.0429e-05,3.56e-06,0.0,0 STARLINK-3929,1 52567U 22051AL  23267.01819627  .00000356  00000-0  40429-4 0  9996,2 52567  53.2150 188.9255 0001165  89.7160 270.3966 15.08843533 76067,6917.87,95.437,540.541,538.929,0.0
52567.0,STARLINK-3929,PAYLOAD,2023-09-24 19:30:49,15.08841663,0.0001274,53.2165,185.3573,96.5265,263.5873,-5.2799e-05,-1.128e-05,0.0,0 STARLINK-3929,1 52567U 22051AL  23267.81307841 -.00001128  00000-0 -52799-4 0  9997,2 52567  53.2165 185.3573 0001274  96.5265 263.5873 15.08841663 76254,6917.875,95.437,540.622,538.859,0.0
52567.0,STARLINK-3929,PAYLOAD,2023-09-24 22:41:36,15.08839948,0.0001263,53.2161,184.7626,91.4305,268.6832,2.2642e-05,7.2e-07,0.0,0 STARLINK-3929,1 52567U 22051AL  23267.94555963  .00000072  00000-0  22642-4 0  9990,2 52567  53.2161 184.7626 0001263  91.4305 268.6832 15.08839948 76208,6917.881,95.438,540.619,538.872,0.0
52567.0,STARLINK-3929,PAYLOAD,2023-09-25 03:27:45,15.08852041,0.0001375,53.2164,183.8699,88.7247,271.3903,0.00030673,4.599e-05,0.0,0 STARLINK-3929,1 52567U 22051AL  23268.14427523  .00004599  00000-0  30673-3 0  9993,2 52567  53.2164 183.8699 0001375  88.7247 271.3903 15.08852041 76309,6917.844,95.437,540.66,538.757,0.0
52567.0,STARLINK-3929,PAYLOAD,2023-09-25 11:24:41,15.08850049,0.0001307,53.2167,182.3845,93.7953,266.3189,0.00028558,4.261e-05,0.0,0 STARLINK-3929,1 52567U 22051AL  23268.47547533  .00004261  00000-0  28558-3 0  9998,2 52567  53.2167 182.3845 0001307  93.7953 266.3189 15.08850049 76287,6917.85,95.437,540.619,538.811,0.0
52567.0,STARLINK-3929,PAYLOAD,2023-09-26 01:43:08,15.08877045,0.0001331,53.2162,179.7075,85.2701,274.8443,0.00076437,0.0001191,0.0,0 STARLINK-3929,1 52567U 22051AL  23269.07162199  .00011910  00000-0  76437-3 0  9994,2 52567  53.2162 179.7075 0001331  85.2701 274.8443 15.08877045 76441,6917.767,95.435,540.553,538.711,0.0
52567.0,STARLINK-3929,PAYLOAD,2023-09-26 17:37:00,15.08838855,0.0001572,53.2166,176.7321,95.6871,264.43,-0.00014956,-2.667e-05,0.0,0 STARLINK-3929,1 52567U 22051AL  23269.73403256 -.00002667  00000-0 -14956-3 0  9998,2 52567  53.2166 176.7321 0001572  95.6871 264.4300 15.08838855 76540,6917.884,95.438,540.836,538.661,0.0
52567.0,STARLINK-3929,PAYLOAD,2023-09-27 11:06:15,15.0882286,0.0001549,53.2154,173.4612,90.0534,270.0636,-0.00010448,-1.95e-05,0.0,0 STARLINK-3929,1 52567U 22051AL  23270.46268177 -.00001950  00000-0 -10448-3 0  9997,2 52567  53.2154 173.4612 0001549  90.0534 270.0636 15.08822860 76581,6917.933,95.439,540.869,538.726,0.0
52567.0,STARLINK-3929,PAYLOAD,2023-09-27 23:49:21,15.08827043,0.000153,53.2168,171.0797,97.9148,262.2018,-0.00011768,-2.16e-05,0.0,0 STARLINK-3929,1 52567U 22051AL  23270.99260472 -.00002160  00000-0 -11768-3 0  9995,2 52567  53.2168 171.0797 0001530  97.9148 262.2018 15.08827043 76665,6917.92,95.438,540.843,538.727,0.0
52567.0,STARLINK-3929,PAYLOAD,2023-09-28 17:18:35,15.08839337,0.0001576,53.2162,167.8087,108.2275,251.8889,0.00039982,6.081e-05,0.0,0 STARLINK-3929,1 52567U 22051AL  23271.72124961  .00006081  00000-0  39982-3 0  9991,2 52567  53.2162 167.8087 0001576 108.2275 251.8889 15.08839337 76840,6917.882,95.438,540.838,538.657,0.0
